{"type": "FeatureCollection", "features": [ {"type": "Feature", "properties": {"norad_id": 66939, "name": "STARLINK-36154", "group": "last-30-days", "lat": 49.38303785116642, "lon": 40.58593697832126, "alt_km": 399.71497211347105, "timestamp": "2025-12-26T23:26:40.922874+00:00", "meta": {"OBJECT_NAME": "STARLINK-36154", "OBJECT_ID": "2025-286Q", "EPOCH": "2025-12-26T18:00:02.998944", "MEAN_MOTION": 15.54254377, "ECCENTRICITY": 0.0001483, "INCLINATION": 53.1597, "RA_OF_ASC_NODE": 340.7274, "ARG_OF_PERICENTER": 94.9988, "MEAN_ANOMALY": 147.1247, "EPHEMERIS_TYPE": 0, "CLASSIFICATION_TYPE": "U", "NORAD_CAT_ID": 66939, "ELEMENT_SET_NO": 999, "REV_AT_EPOCH": 424, "BSTAR": -0.034237, "MEAN_MOTION_DOT": -0.02030815, "MEAN_MOTION_DDOT": 0}, "tle": {"line1": "1 66939U 25286Q   25360.75003471 -.02030815  00000+0 -34237-1 0  9999", "line2": "2 66939  53.1597 340.7274 0001483  94.9988 147.1247 15.54254377  4244"}}, "geometry": {"type": "Point", "coordinates": [40.58593697832126, 49.38303785116642]}}, {"type": "Feature", "properties": {"norad_id": 66940, "name": "STARLINK-36121", "group": "last-30-days", "lat": 50.09669473840431, "lon": 43.34242778592161, "alt_km": 399.54250618099377, "timestamp": "2025-12-26T23:26:40.922883+00:00", "meta": {"OBJECT_NAME": "STARLINK-36121", "OBJECT_ID": "2025-286R", "EPOCH": "2025-12-26T18:00:02.998944", "MEAN_MOTION": 15.54249504, "ECCENTRICITY": 0.0001528, "INCLINATION": 53.1593, "RA_OF_ASC_NODE": 340.723, "ARG_OF_PERICENTER": 90.2709, "MEAN_ANOMALY": 153.7716, "EPHEMERIS_TYPE": 0, "CLASSIFICATION_TYPE": "U", "NORAD_CAT_ID": 66940, "ELEMENT_SET_NO": 999, "REV_AT_EPOCH": 424, "BSTAR": -0.034092, "MEAN_MOTION_DOT": -0.02022854, "MEAN_MOTION_DDOT": 0}, "tle": {"line1": "1 66940U 25286R   25360.75003471 -.02022854  00000+0 -34092-1 0  9994", "line2": "2 66940  53.1593 340.7230 0001528  90.2709 153.7716 15.54249504  4244"}}, "geometry": {"type": "Point", "coordinates": [43.34242778592161, 50.09669473840431]}}, {"type": "Feature", "properties": {"norad_id": 66941, "name": "STARLINK-36088", "group": "last-30-days", "lat": 52.10752042696815, "lon": 85.14060123986397, "alt_km": 393.58481542654226, "timestamp": "2025-12-26T23:26:40.922891+00:00", "meta": {"OBJECT_NAME": "STARLINK-36088", "OBJECT_ID": "2025-286S", "EPOCH": "2025-12-26T18:00:02.998944", "MEAN_MOTION": 15.56196815, "ECCENTRICITY": 0.0001444, "INCLINATION": 53.1595, "RA_OF_ASC_NODE": 340.6739, "ARG_OF_PERICENTER": 96.8039, "MEAN_ANOMALY": 171.5843, "EPHEMERIS_TYPE": 0, "CLASSIFICATION_TYPE": "U", "NORAD_CAT_ID": 66941, "ELEMENT_SET_NO": 999, "REV_AT_EPOCH": 424, "BSTAR": -0.031441, "MEAN_MOTION_DOT": -0.01970517, "MEAN_MOTION_DDOT": 0}, "tle": {"line1": "1 66941U 25286S   25360.75003471 -.01970517  00000+0 -31441-1 0  9997", "line2": "2 66941  53.1595 340.6739 0001444  96.8039 171.5843 15.56196815  4242"}}, "geometry": {"type": "Point", "coordinates": [85.14060123986397, 52.10752042696815]}}, {"type": "Feature", "properties": {"norad_id": 66942, "name": "STARLINK-36100", "group": "last-30-days", "lat": 50.743682294135496, "lon": 46.179408550859094, "alt_km": 399.5124419943486, "timestamp": "2025-12-26T23:26:40.922900+00:00", "meta": {"OBJECT_NAME": "STARLINK-36100", "OBJECT_ID": "2025-286T", "EPOCH": "2025-12-26T18:00:02.998944", "MEAN_MOTION": 15.54248249, "ECCENTRICITY": 0.000141, "INCLINATION": 53.1594, "RA_OF_ASC_NODE": 340.7186, "ARG_OF_PERICENTER": 87.9594, "MEAN_ANOMALY": 158.0018, "EPHEMERIS_TYPE": 0, "CLASSIFICATION_TYPE": "U", "NORAD_CAT_ID": 66942, "ELEMENT_SET_NO": 999, "REV_AT_EPOCH": 417, "BSTAR": -0.034085, "MEAN_MOTION_DOT": -0.02022319, "MEAN_MOTION_DDOT": 0}, "tle": {"line1": "1 66942U 25286T   25360.75003471 -.02022319  00000+0 -34085-1 0  9994", "line2": "2 66942  53.1594 340.7186 0001410  87.9594 158.0018 15.54248249  4172"}}, "geometry": {"type": "Point", "coordinates": [46.179408550859094, 50.743682294135496]}}, {"type": "Feature", "properties": {"norad_id": 66943, "name": "STARLINK-36109", "group": "last-30-days", "lat": 51.31915063407178, "lon": 49.08850681760665, "alt_km": 399.4713603646642, "timestamp": "2025-12-26T23:26:40.922909+00:00", "meta": {"OBJECT_NAME": "STARLINK-36109", "OBJECT_ID": "2025-286U", "EPOCH": "2025-12-26T18:00:02.998944", "MEAN_MOTION": 15.54246873, "ECCENTRICITY": 0.0001385, "INCLINATION": 53.1595, "RA_OF_ASC_NODE": 340.7145, "ARG_OF_PERICENTER": 94.1434, "MEAN_ANOMALY": 153.7368, "EPHEMERIS_TYPE": 0, "CLASSIFICATION_TYPE": "U", "NORAD_CAT_ID": 66943, "ELEMENT_SET_NO": 999, "REV_AT_EPOCH": 417, "BSTAR": -0.034062, "MEAN_MOTION_DOT": -0.02021006, "MEAN_MOTION_DDOT": 0}, "tle": {"line1": "1 66943U 25286U   25360.75003471 -.02021006  00000+0 -34062-1 0  9992", "line2": "2 66943  53.1595 340.7145 0001385  94.1434 153.7368 15.54246873  4174"}}, "geometry": {"type": "Point", "coordinates": [49.08850681760665, 51.31915063407178]}}, {"type": "Feature", "properties": {"norad_id": 66944, "name": "STARLINK-36112", "group": "last-30-days", "lat": 51.819795983391174, "lon": 52.06378913935561, "alt_km": 399.3368883513258, "timestamp": "2025-12-26T23:26:40.922919+00:00", "meta": {"OBJECT_NAME": "STARLINK-36112", "OBJECT_ID": "2025-286V", "EPOCH": "2025-12-26T18:00:02.998944", "MEAN_MOTION": 15.54251607, "ECCENTRICITY": 0.0001484, "INCLINATION": 53.1594, "RA_OF_ASC_NODE": 340.7113, "ARG_OF_PERICENTER": 96.0632, "MEAN_ANOMALY": 153.7299, "EPHEMERIS_TYPE": 0, "CLASSIFICATION_TYPE": "U", "NORAD_CAT_ID": 66944, "ELEMENT_SET_NO": 999, "REV_AT_EPOCH": 424, "BSTAR": -0.034213, "MEAN_MOTION_DOT": -0.02029388, "MEAN_MOTION_DDOT": 0}, "tle": {"line1": "1 66944U 25286V   25360.75003471 -.02029388  00000+0 -34213-1 0  9992", "line2": "2 66944  53.1594 340.7113 0001484  96.0632 153.7299 15.54251607  4242"}}, "geometry": {"type": "Point", "coordinates": [52.06378913935561, 51.819795983391174]}}, {"type": "Feature", "properties": {"norad_id": 66945, "name": "STARLINK-36110", "group": "last-30-days", "lat": 52.24425885470309, "lon": 55.10365772525473, "alt_km": 399.31090608953036, "timestamp": "2025-12-26T23:26:40.922930+00:00", "meta": {"OBJECT_NAME": "STARLINK-36110", "OBJECT_ID": "2025-286W", "EPOCH": "2025-12-26T18:00:02.998944", "MEAN_MOTION": 15.5425012, "ECCENTRICITY": 0.0001444, "INCLINATION": 53.1594, "RA_OF_ASC_NODE": 340.7065, "ARG_OF_PERICENTER": 99.4536, "MEAN_ANOMALY": 152.2574, "EPHEMERIS_TYPE": 0, "CLASSIFICATION_TYPE": "U", "NORAD_CAT_ID": 66945, "ELEMENT_SET_NO": 999, "REV_AT_EPOCH": 424, "BSTAR": -0.034136, "MEAN_MOTION_DOT": -0.02025149, "MEAN_MOTION_DDOT": 0}, "tle": {"line1": "1 66945U 25286W   25360.75003471 -.02025149  00000+0 -34136-1 0  9998", "line2": "2 66945  53.1594 340.7065 0001444  99.4536 152.2574 15.54250120  4244"}}, "geometry": {"type": "Point", "coordinates": [55.10365772525473, 52.24425885470309]}}, {"type": "Feature", "properties": {"norad_id": 66946, "name": "STARLINK-36115", "group": "last-30-days", "lat": 52.58884264785506, "lon": 58.196562136614375, "alt_km": 399.2093697832188, "timestamp": "2025-12-26T23:26:40.922939+00:00", "meta": {"OBJECT_NAME": "STARLINK-36115", "OBJECT_ID": "2025-286X", "EPOCH": "2025-12-26T18:00:02.998944", "MEAN_MOTION": 15.54250267, "ECCENTRICITY": 0.0001504, "INCLINATION": 53.1594, "RA_OF_ASC_NODE": 340.7029, "ARG_OF_PERICENTER": 98.6924, "MEAN_ANOMALY": 154.9344, "EPHEMERIS_TYPE": 0, "CLASSIFICATION_TYPE": "U", "NORAD_CAT_ID": 66946, "ELEMENT_SET_NO": 999, "REV_AT_EPOCH": 424, "BSTAR": -0.034132, "MEAN_MOTION_DOT": -0.02025002, "MEAN_MOTION_DDOT": 0}, "tle": {"line1": "1 66946U 25286X   25360.75003471 -.02025002  00000+0 -34132-1 0  9993", "line2": "2 66946  53.1594 340.7029 0001504  98.6924 154.9344 15.54250267  4240"}}, "geometry": {"type": "Point", "coordinates": [58.196562136614375, 52.58884264785506]}}, {"type": "Feature", "properties": {"norad_id": 66947, "name": "STARLINK-36089", "group": "last-30-days", "lat": 53.03041098406276, "lon": 64.50632818487487, "alt_km": 399.1813939798594, "timestamp": "2025-12-26T23:26:40.922947+00:00", "meta": {"OBJECT_NAME": "STARLINK-36089", "OBJECT_ID": "2025-286Y", "EPOCH": "2025-12-26T18:00:02.998944", "MEAN_MOTION": 15.5425073, "ECCENTRICITY": 0.0001413, "INCLINATION": 53.1591, "RA_OF_ASC_NODE": 340.6943, "ARG_OF_PERICENTER": 94.4948, "MEAN_ANOMALY": 162.9665, "EPHEMERIS_TYPE": 0, "CLASSIFICATION_TYPE": "U", "NORAD_CAT_ID": 66947, "ELEMENT_SET_NO": 999, "REV_AT_EPOCH": 424, "BSTAR": -0.034155, "MEAN_MOTION_DOT": -0.02026191, "MEAN_MOTION_DDOT": 0}, "tle": {"line1": "1 66947U 25286Y   25360.75003471 -.02026191  00000+0 -34155-1 0  9999", "line2": "2 66947  53.1591 340.6943 0001413  94.4948 162.9665 15.54250730  4241"}}, "geometry": {"type": "Point", "coordinates": [64.50632818487487, 53.03041098406276]}}, {"type": "Feature", "properties": {"norad_id": 66948, "name": "STARLINK-36116", "group": "last-30-days", "lat": 52.85103957401472, "lon": 61.33412033675318, "alt_km": 399.1844163085716, "timestamp": "2025-12-26T23:26:40.922956+00:00", "meta": {"OBJECT_NAME": "STARLINK-36116", "OBJECT_ID": "2025-286Z", "EPOCH": "2025-12-26T18:00:02.998944", "MEAN_MOTION": 15.54250257, "ECCENTRICITY": 0.0001478, "INCLINATION": 53.1588, "RA_OF_ASC_NODE": 340.6986, "ARG_OF_PERICENTER": 99.0683, "MEAN_ANOMALY": 156.4758, "EPHEMERIS_TYPE": 0, "CLASSIFICATION_TYPE": "U", "NORAD_CAT_ID": 66948, "ELEMENT_SET_NO": 999, "REV_AT_EPOCH": 424, "BSTAR": -0.034141, "MEAN_MOTION_DOT": -0.0202547, "MEAN_MOTION_DDOT": 0}, "tle": {"line1": "1 66948U 25286Z   25360.75003471 -.02025470  00000+0 -34141-1 0  9994", "line2": "2 66948  53.1588 340.6986 0001478  99.0683 156.4758 15.54250257  4248"}}, "geometry": {"type": "Point", "coordinates": [61.33412033675318, 52.85103957401472]}}]}